ONEWEB-0267             
1 48985U 21060U   26015.15888046 -.00000001  00000+0 -36776-4 0  9992
2 48985  87.9027 259.2399 0001431  69.0211 291.1073 13.16595276219455
ONEWEB-0268             
1 48986U 21060V   26015.12721139  .00000074  00000+0  15872-3 0  9990
2 48986  87.9031 259.2559 0001476  75.5727 284.5568 13.16595289219710
ONEWEB-0269             
1 48987U 21060W   26015.10821397  .00000106  00000+0  24395-3 0  9992
2 48987  87.9020 259.2783 0001702  81.3853 278.7471 13.16595560219489
ONEWEB-0270             
1 48988U 21060X   26015.50562295  .00000109  00000+0  25075-3 0  9995
2 48988  87.9030 259.1822 0001103  70.4571 289.6679 13.16594975219575
ONEWEB-0271             
1 48989U 21060Y   26015.11297149  .00000084  00000+0  18636-3 0  9993
2 48989  87.9031 259.2503 0001335  70.4824 289.6451 13.16595046219525
ONEWEB-0272             
1 48990U 21060Z   26015.13513094  .00000096  00000+0  21760-3 0  9992
2 48990  87.9028 259.2589 0001557  69.1463 290.9835 13.16595091219472
ONEWEB-0273             
1 48991U 21060AA  26015.15730465 -.00000056  00000+0 -17888-3 0  9992
2 48991  87.9034 259.2515 0001324  74.7005 285.4272 13.16595607219450
ONEWEB-0274             
1 48992U 21060AB  26015.10663461  .00000112  00000+0  25926-3 0  9992
2 48992  87.9018 259.2807 0001738  71.1994 288.9325 13.16595162219480
